start=new Date('2023-01-03T00:00:00.000Z').valueOf();
sats=[{"BSTAR":"0.00013910000000","TLE_LINE2":"2 54102  53.2142 150.2370 0001528  56.5220 303.5918 15.08843685 11565","MEAN_MOTION_DOT":"0.00001927","ECCENTRICITY":"0.00015280","TIME_SYSTEM":"UTC","RCS_SIZE":"LARGE","RA_OF_ASC_NODE":"150.2370","REV_AT_EPOCH":"1156","MEAN_MOTION_DDOT":"0.0000000000000","GP_ID":"222066873","COUNTRY_CODE":"US","PERIAPSIS":"538.677","OBJECT_TYPE":"PAYLOAD","EPHEMERIS_TYPE":"0","INCLINATION":"53.2142","ELEMENT_SET_NO":"999","LAUNCH_DATE":"2022-10-20","SITE":"AFETR","EPOCH":"2023-01-02T15:58:19.970688","MEAN_MOTION":"15.08843685","CLASSIFICATION_TYPE":"U","NORAD_CAT_ID":"54102","DECAY_DATE":null,"PERIOD":"95.437","OBJECT_NAME":"STARLINK-5179","OBJECT_ID":"2022-136BD","MEAN_ANOMALY":"303.5918","CENTER_NAME":"EARTH","MEAN_ELEMENT_THEORY":"SGP4","FILE":"3729873","APOAPSIS":"540.791","SEMIMAJOR_AXIS":"6917.869","REF_FRAME":"TEME","TLE_LINE1":"1 54102U 22136BD  23002.66550892  .00001927  00000-0  13910-3 0  9990","ARG_OF_PERICENTER":"56.5220"},{"ARG_OF_PERICENTER":"352.0384","TLE_LINE1":"1 54103U 22136BE  23002.77056015 -.00000537  00000-0  62823-6 0  9998","REF_FRAME":"TEME","SEMIMAJOR_AXIS":"6727.941","APOAPSIS":"352.780","FILE":"3729873","MEAN_ELEMENT_THEORY":"SGP4","CENTER_NAME":"EARTH","OBJECT_ID":"2022-136BE","MEAN_ANOMALY":"8.0565","OBJECT_NAME":"STARLINK-5200","PERIOD":"91.534","DECAY_DATE":null,"NORAD_CAT_ID":"54103","MEAN_MOTION":"15.73183868","EPOCH":"2023-01-02T18:29:36.396960","CLASSIFICATION_TYPE":"U","SITE":"AFETR","LAUNCH_DATE":"2022-10-20","ELEMENT_SET_NO":"999","INCLINATION":"53.2145","EPHEMERIS_TYPE":"0","OBJECT_TYPE":"PAYLOAD","PERIAPSIS":"346.832","COUNTRY_CODE":"US","GP_ID":"222067098","MEAN_MOTION_DDOT":"0.0000000000000","REV_AT_EPOCH":"1170","RA_OF_ASC_NODE":"140.8569","RCS_SIZE":"LARGE","TIME_SYSTEM":"UTC","ECCENTRICITY":"0.00044200","MEAN_MOTION_DOT":"-0.00000537","TLE_LINE2":"2 54103  53.2145 140.8569 0004420 352.0384   8.0565 15.73183868 11706","BSTAR":"0.00000062823000"},{"NORAD_CAT_ID":"54104","DECAY_DATE":null,"EPOCH":"2023-01-02T15:26:29.948352","MEAN_MOTION":"15.73207328","CLASSIFICATION_TYPE":"U","OBJECT_NAME":"STARLINK-5203","PERIOD":"91.533","MEAN_ANOMALY":"1.7293","OBJECT_ID":"2022-136BF","CENTER_NAME":"EARTH","FILE":"3729873","MEAN_ELEMENT_THEORY":"SGP4","SEMIMAJOR_AXIS":"6727.874","APOAPSIS":"352.577","REF_FRAME":"TEME","TLE_LINE1":"1 54104U 22136BF  23002.64340218  .00015326  00000-0  11336-3 0  9997","ARG_OF_PERICENTER":"358.3713","BSTAR":"0.00011336000000","MEAN_MOTION_DOT":"0.00015326","ECCENTRICITY":"0.00042180","TLE_LINE2":"2 54104  53.2154 141.4905 0004218 358.3713   1.7293 15.73207328 11681","RCS_SIZE":"LARGE","TIME_SYSTEM":"UTC","REV_AT_EPOCH":"1168","MEAN_MOTION_DDOT":"0.0000000000000","RA_OF_ASC_NODE":"141.4905","COUNTRY_CODE":"US","PERIAPSIS":"346.901","GP_ID":"222067324","INCLINATION":"53.2154","OBJECT_TYPE":"PAYLOAD","EPHEMERIS_TYPE":"0","LAUNCH_DATE":"2022-10-20","ELEMENT_SET_NO":"999","SITE":"AFETR"},{"REF_FRAME":"TEME","APOAPSIS":"541.033","SEMIMAJOR_AXIS":"6917.793","MEAN_ELEMENT_THEORY":"SGP4","FILE":"3729873","ARG_OF_PERICENTER":"54.3135","TLE_LINE1":"1 54157U 22141A   23002.82012214 -.00012469  00000-0 -76603-3 0  9998","OBJECT_NAME":"STARLINK-5290","PERIOD":"95.436","NORAD_CAT_ID":"54157","DECAY_DATE":null,"MEAN_MOTION":"15.08868586","EPOCH":"2023-01-02T19:40:58.552896","CLASSIFICATION_TYPE":"U","CENTER_NAME":"EARTH","MEAN_ANOMALY":"305.8042","OBJECT_ID":"2022-141A","INCLINATION":"53.2159","EPHEMERIS_TYPE":"0","OBJECT_TYPE":"PAYLOAD","PERIAPSIS":"538.283","COUNTRY_CODE":"US","GP_ID":"222067780","SITE":"AFWTR","LAUNCH_DATE":"2022-10-28","ELEMENT_SET_NO":"999","ECCENTRICITY":"0.00019880","MEAN_MOTION_DOT":"-0.00012469","TLE_LINE2":"2 54157  53.2159 190.0120 0001988  54.3135 305.8042 15.08868586 10311","BSTAR":"-0.00076603000000","MEAN_MOTION_DDOT":"0.0000000000000","REV_AT_EPOCH":"1031","RA_OF_ASC_NODE":"190.0120","RCS_SIZE":"LARGE","TIME_SYSTEM":"UTC"},{"CENTER_NAME":"EARTH","MEAN_ANOMALY":"303.2507","OBJECT_ID":"2022-141B","OBJECT_NAME":"STARLINK-5297","PERIOD":"95.438","NORAD_CAT_ID":"54158","DECAY_DATE":null,"EPOCH":"2023-01-02T15:05:27.417120","MEAN_MOTION":"15.08837752","CLASSIFICATION_TYPE":"U","TLE_LINE1":"1 54158U 22141B   23002.62878955  .00000305  00000-0  37245-4 0  9993","ARG_OF_PERICENTER":"56.8653","REF_FRAME":"TEME","MEAN_ELEMENT_THEORY":"SGP4","FILE":"3729873","SEMIMAJOR_AXIS":"6917.887","APOAPSIS":"540.969","REV_AT_EPOCH":"1028","MEAN_MOTION_DDOT":"0.0000000000000","RA_OF_ASC_NODE":"190.9481","RCS_SIZE":"LARGE","TIME_SYSTEM":"UTC","MEAN_MOTION_DOT":"0.00000305","ECCENTRICITY":"0.00017590","TLE_LINE2":"2 54158  53.2159 190.9481 0001759  56.8653 303.2507 15.08837752 10284","BSTAR":"0.00003724500000","SITE":"AFWTR","LAUNCH_DATE":"2022-10-28","ELEMENT_SET_NO":"999","INCLINATION":"53.2159","OBJECT_TYPE":"PAYLOAD","EPHEMERIS_TYPE":"0","COUNTRY_CODE":"US","PERIAPSIS":"538.535","GP_ID":"222068005"},{"SITE":"AFWTR","ELEMENT_SET_NO":"999","LAUNCH_DATE":"2022-10-28","EPHEMERIS_TYPE":"0","OBJECT_TYPE":"PAYLOAD","INCLINATION":"53.2172","GP_ID":"222066879","PERIAPSIS":"538.906","COUNTRY_CODE":"US","RA_OF_ASC_NODE":"189.2712","MEAN_MOTION_DDOT":"0.0000000000000","REV_AT_EPOCH":"1033","TIME_SYSTEM":"UTC","RCS_SIZE":"LARGE","TLE_LINE2":"2 54159  53.2172 189.2712 0001211 103.7488 256.3639 15.08840670 10332","ECCENTRICITY":"0.00012110","MEAN_MOTION_DOT":"-0.00001808","BSTAR":"-0.00009554600000","ARG_OF_PERICENTER":"103.7488","TLE_LINE1":"1 54159U 22141C   23002.92777721 -.00001808  00000-0 -95546-4 0  9995","REF_FRAME":"TEME","SEMIMAJOR_AXIS":"6917.878","APOAPSIS":"540.581","FILE":"3729873","MEAN_ELEMENT_THEORY":"SGP4","CENTER_NAME":"EARTH","MEAN_ANOMALY":"256.3639","OBJECT_ID":"2022-141C","PERIOD":"95.438","OBJECT_NAME":"STARLINK-5294","EPOCH":"2023-01-02T22:15:59.950944","CLASSIFICATION_TYPE":"U","MEAN_MOTION":"15.08840670","DECAY_DATE":null,"NORAD_CAT_ID":"54159"},{"EPOCH":"2023-01-02T17:49:41.729376","MEAN_MOTION":"15.73215927","CLASSIFICATION_TYPE":"U","DECAY_DATE":null,"NORAD_CAT_ID":"54160","PERIOD":"91.532","OBJECT_NAME":"STARLINK-5233","MEAN_ANOMALY":"356.1808","OBJECT_ID":"2022-141D","CENTER_NAME":"EARTH","FILE":"3729873","MEAN_ELEMENT_THEORY":"SGP4","SEMIMAJOR_AXIS":"6727.850","APOAPSIS":"352.484","REF_FRAME":"TEME","TLE_LINE1":"1 54160U 22141D   23002.74284409  .00034350  00000-0  24792-3 0  9993","ARG_OF_PERICENTER":"3.9244","BSTAR":"0.00024792000000","TLE_LINE2":"2 54160  53.2146 173.7962 0004116   3.9244 356.1808 15.73215927 10530","MEAN_MOTION_DOT":"0.00034350","ECCENTRICITY":"0.00041160","TIME_SYSTEM":"UTC","RCS_SIZE":"LARGE","RA_OF_ASC_NODE":"173.7962","REV_AT_EPOCH":"1053","MEAN_MOTION_DDOT":"0.0000000000000","GP_ID":"222067104","COUNTRY_CODE":"US","PERIAPSIS":"346.946","OBJECT_TYPE":"PAYLOAD","EPHEMERIS_TYPE":"0","INCLINATION":"53.2146","ELEMENT_SET_NO":"999","LAUNCH_DATE":"2022-10-28","SITE":"AFWTR"},{"REF_FRAME":"TEME","MEAN_ELEMENT_THEORY":"SGP4","FILE":"3729873","SEMIMAJOR_AXIS":"6917.870","APOAPSIS":"541.123","TLE_LINE1":"1 54161U 22141E   23002.89006335  .00000097  00000-0  24220-4 0  9998","ARG_OF_PERICENTER":"48.7660","OBJECT_NAME":"STARLINK-5269","PERIOD":"95.437","DECAY_DATE":null,"NORAD_CAT_ID":"54161","MEAN_MOTION":"15.08843466","EPOCH":"2023-01-02T21:21:41.473440","CLASSIFICATION_TYPE":"U","CENTER_NAME":"EARTH","OBJECT_ID":"2022-141E","MEAN_ANOMALY":"311.3505","INCLINATION":"53.2163","OBJECT_TYPE":"PAYLOAD","EPHEMERIS_TYPE":"0","COUNTRY_CODE":"US","PERIAPSIS":"538.346","GP_ID":"222067330","SITE":"AFWTR","LAUNCH_DATE":"2022-10-28","ELEMENT_SET_NO":"999","MEAN_MOTION_DOT":"0.00000097","ECCENTRICITY":"0.00020070","TLE_LINE2":"2 54161  53.2163 189.7360 0002007  48.7660 311.3505 15.08843466 10322","BSTAR":"0.00002422000000","REV_AT_EPOCH":"1032","MEAN_MOTION_DDOT":"0.0000000000000","RA_OF_ASC_NODE":"189.7360","RCS_SIZE":"LARGE","TIME_SYSTEM":"UTC"},{"ARG_OF_PERICENTER":"64.4560","TLE_LINE1":"1 54162U 22141F   23002.88268988 -.00000422  00000-0 -83862-5 0  9994","REF_FRAME":"TEME","APOAPSIS":"541.024","SEMIMAJOR_AXIS":"6917.870","FILE":"3729873","MEAN_ELEMENT_THEORY":"SGP4","CENTER_NAME":"EARTH","OBJECT_ID":"2022-141F","MEAN_ANOMALY":"295.6624","OBJECT_NAME":"STARLINK-5273","PERIOD":"95.437","NORAD_CAT_ID":"54162","DECAY_DATE":null,"EPOCH":"2023-01-02T21:11:04.405632","MEAN_MOTION":"15.08843383","CLASSIFICATION_TYPE":"U","SITE":"AFWTR","LAUNCH_DATE":"2022-10-28","ELEMENT_SET_NO":"999","INCLINATION":"53.2174","EPHEMERIS_TYPE":"0","OBJECT_TYPE":"PAYLOAD","PERIAPSIS":"538.446","COUNTRY_CODE":"US","GP_ID":"222067556","MEAN_MOTION_DDOT":"0.0000000000000","REV_AT_EPOCH":"1032","RA_OF_ASC_NODE":"189.6948","RCS_SIZE":"LARGE","TIME_SYSTEM":"UTC","ECCENTRICITY":"0.00018630","MEAN_MOTION_DOT":"-0.00000422","TLE_LINE2":"2 54162  53.2174 189.6948 0001863  64.4560 295.6624 15.08843383 10323","BSTAR":"-0.00000838620000"},{"PERIOD":"95.438","OBJECT_NAME":"STARLINK-5161","EPOCH":"2023-01-02T22:00:00.999936","CLASSIFICATION_TYPE":"U","MEAN_MOTION":"15.08830358","NORAD_CAT_ID":"54163","DECAY_DATE":null,"CENTER_NAME":"EARTH","OBJECT_ID":"2022-141G","MEAN_ANOMALY":"60.2364","REF_FRAME":"TEME","SEMIMAJOR_AXIS":"6917.910","APOAPSIS":"540.880","MEAN_ELEMENT_THEORY":"SGP4","FILE":"3729873","ARG_OF_PERICENTER":"59.3798","TLE_LINE1":"1 54163U 22141G   23002.91667824  .00036690  00000-0  23120-2 0  9993","TLE_LINE2":"2 54163  53.2133 179.6900 0001598  59.3798  60.2364 15.08830358  1300","ECCENTRICITY":"0.00015980","MEAN_MOTION_DOT":"0.00036690","BSTAR":"0.00231200000000","RA_OF_ASC_NODE":"179.6900","MEAN_MOTION_DDOT":"0.0000000000000","REV_AT_EPOCH":"130","TIME_SYSTEM":"UTC","RCS_SIZE":"LARGE","EPHEMERIS_TYPE":"0","OBJECT_TYPE":"PAYLOAD","INCLINATION":"53.2133","GP_ID":"222066429","PERIAPSIS":"538.669","COUNTRY_CODE":"US","SITE":"AFWTR","ELEMENT_SET_NO":"999","LAUNCH_DATE":"2022-10-28"}];
